UNKNOWN                 
1 82529U          25315.18265130  .00000351  00000+0  60796-3 0  9997
2 82529  99.7920  39.5707 0235226 317.4669  70.4193 13.41059934585518
UNKNOWN                 
1 82560U          25321.80379090  .00002102  00000+0  17279-2 0  9992
2 82560  99.9857 262.5190 0012351   9.8206  18.9333 13.90546999608402
UNKNOWN                 
1 82597U          25324.41812211  .00001783  00000+0  61467-3 0  9992
2 82597  66.7709 206.7605 0096400 322.8102  36.6347 14.35629103625771
UNKNOWN                 
1 82617U          25324.57583164  .00000819  00000+0  21952-3 0  9998
2 82617  74.0264 285.2373 0039815 235.4962 124.2436 14.49353102633619
UNKNOWN                 
1 82627U          25323.80297876  .00000661  00000+0  17039-2 0  9991
2 82627  82.4738 264.9882 0008339 144.1062 245.1755 13.16253151575812
UNKNOWN                 
1 82642U          25315.99875109  .00003387  00000+0  18861-2 0  9992
2 82642  98.9722 226.7555 0137365 323.6725  35.5178 14.07005472611812
UNKNOWN                 
1 82683U          25324.14426095  .00001204  00000+0  46642-3 0  9995
2 82683  98.1766  34.7884 0211875 102.1796 260.3200 14.20057007459063
UNKNOWN                 
1 82693U          25324.13159221  .00002913  00000+0  33905-2 0  9994
2 82693 100.5306 285.5697 0041935  74.9953 285.5825 13.69333988550666
UNKNOWN                 
1 82698U          25321.45569864  .00001773  00000+0  10895-2 0  9995
2 82698  61.6136 218.1657 0684231 280.2009  72.2561 13.29325801535014
UNKNOWN                 
1 82708U          25321.83320586  .00001527  00000+0  59444-2 0  9995
2 82708 102.1664 162.5867 0063485 336.1178  23.6972 12.90522833520301
UNKNOWN                 
1 82729U          25321.28034464  .00000829  00000+0  29051-2 0  9999
2 82729  67.9666 189.9070 0829920  28.3980 335.9760 12.17733009532101
UNKNOWN                 
1 82739U          25320.71165104  .00002576  00000+0  21502-2 0  9997
2 82739  99.0862 117.9505 0173666   3.0981  12.8716 13.82580809602516
