CCSDS_OMM_VERS = 2.0
CREATION_DATE  = 
ORIGINATOR     = 

OBJECT_NAME    = UNKNOWN
OBJECT_ID      = 
CENTER_NAME    = EARTH
REF_FRAME      = TEME
TIME_SYSTEM    = UTC
MEAN_ELEMENT_THEORY = SGP/SGP4

EPOCH          = 2025-11-11T04:23:01.072320
MEAN_MOTION    = 13.41059934
ECCENTRICITY   = .0235226
INCLINATION    = 99.7920
RA_OF_ASC_NODE = 39.5707
ARG_OF_PERICENTER = 317.4669
MEAN_ANOMALY   = 70.4193

EPHEMERIS_TYPE = 0
CLASSIFICATION_TYPE = U
NORAD_CAT_ID   = 82529
ELEMENT_SET_NO = 999
REV_AT_EPOCH   = 58551
BSTAR          = .60796E-3
MEAN_MOTION_DOT = .351E-5
MEAN_MOTION_DDOT = 0

CCSDS_OMM_VERS = 2.0
CREATION_DATE  = 
ORIGINATOR     = 

OBJECT_NAME    = UNKNOWN
OBJECT_ID      = 
CENTER_NAME    = EARTH
REF_FRAME      = TEME
TIME_SYSTEM    = UTC
MEAN_ELEMENT_THEORY = SGP/SGP4

EPOCH          = 2025-11-17T19:17:27.533760
MEAN_MOTION    = 13.90546999
ECCENTRICITY   = .0012351
INCLINATION    = 99.9857
RA_OF_ASC_NODE = 262.5190
ARG_OF_PERICENTER = 9.8206
MEAN_ANOMALY   = 18.9333

EPHEMERIS_TYPE = 0
CLASSIFICATION_TYPE = U
NORAD_CAT_ID   = 82560
ELEMENT_SET_NO = 999
REV_AT_EPOCH   = 60840
BSTAR          = .17279E-2
MEAN_MOTION_DOT = .2102E-4
MEAN_MOTION_DDOT = 0

CCSDS_OMM_VERS = 2.0
CREATION_DATE  = 
ORIGINATOR     = 

OBJECT_NAME    = UNKNOWN
OBJECT_ID      = 
CENTER_NAME    = EARTH
REF_FRAME      = TEME
TIME_SYSTEM    = UTC
MEAN_ELEMENT_THEORY = SGP/SGP4

EPOCH          = 2025-11-20T10:02:05.750304
MEAN_MOTION    = 14.35629103
ECCENTRICITY   = .00964
INCLINATION    = 66.7709
RA_OF_ASC_NODE = 206.7605
ARG_OF_PERICENTER = 322.8102
MEAN_ANOMALY   = 36.6347

EPHEMERIS_TYPE = 0
CLASSIFICATION_TYPE = U
NORAD_CAT_ID   = 82597
ELEMENT_SET_NO = 999
REV_AT_EPOCH   = 62577
BSTAR          = .61467E-3
MEAN_MOTION_DOT = .1783E-4
MEAN_MOTION_DDOT = 0

CCSDS_OMM_VERS = 2.0
CREATION_DATE  = 
ORIGINATOR     = 

OBJECT_NAME    = UNKNOWN
OBJECT_ID      = 
CENTER_NAME    = EARTH
REF_FRAME      = TEME
TIME_SYSTEM    = UTC
MEAN_ELEMENT_THEORY = SGP/SGP4

EPOCH          = 2025-11-20T13:49:11.853696
MEAN_MOTION    = 14.49353102
ECCENTRICITY   = .0039815
INCLINATION    = 74.0264
RA_OF_ASC_NODE = 285.2373
ARG_OF_PERICENTER = 235.4962
MEAN_ANOMALY   = 124.2436

EPHEMERIS_TYPE = 0
CLASSIFICATION_TYPE = U
NORAD_CAT_ID   = 82617
ELEMENT_SET_NO = 999
REV_AT_EPOCH   = 63361
BSTAR          = .21952E-3
MEAN_MOTION_DOT = .819E-5
MEAN_MOTION_DDOT = 0

CCSDS_OMM_VERS = 2.0
CREATION_DATE  = 
ORIGINATOR     = 

OBJECT_NAME    = UNKNOWN
OBJECT_ID      = 
CENTER_NAME    = EARTH
REF_FRAME      = TEME
TIME_SYSTEM    = UTC
MEAN_ELEMENT_THEORY = SGP/SGP4

EPOCH          = 2025-11-19T19:16:17.364864
MEAN_MOTION    = 13.16253151
ECCENTRICITY   = .0008339
INCLINATION    = 82.4738
RA_OF_ASC_NODE = 264.9882
ARG_OF_PERICENTER = 144.1062
MEAN_ANOMALY   = 245.1755

EPHEMERIS_TYPE = 0
CLASSIFICATION_TYPE = U
NORAD_CAT_ID   = 82627
ELEMENT_SET_NO = 999
REV_AT_EPOCH   = 57581
BSTAR          = .17039E-2
MEAN_MOTION_DOT = .661E-5
MEAN_MOTION_DDOT = 0

CCSDS_OMM_VERS = 2.0
CREATION_DATE  = 
ORIGINATOR     = 

OBJECT_NAME    = UNKNOWN
OBJECT_ID      = 
CENTER_NAME    = EARTH
REF_FRAME      = TEME
TIME_SYSTEM    = UTC
MEAN_ELEMENT_THEORY = SGP/SGP4

EPOCH          = 2025-11-11T23:58:12.094176
MEAN_MOTION    = 14.07005472
ECCENTRICITY   = .0137365
INCLINATION    = 98.9722
RA_OF_ASC_NODE = 226.7555
ARG_OF_PERICENTER = 323.6725
MEAN_ANOMALY   = 35.5178

EPHEMERIS_TYPE = 0
CLASSIFICATION_TYPE = U
NORAD_CAT_ID   = 82642
ELEMENT_SET_NO = 999
REV_AT_EPOCH   = 61181
BSTAR          = .18861E-2
MEAN_MOTION_DOT = .3387E-4
MEAN_MOTION_DDOT = 0

CCSDS_OMM_VERS = 2.0
CREATION_DATE  = 
ORIGINATOR     = 

OBJECT_NAME    = UNKNOWN
OBJECT_ID      = 
CENTER_NAME    = EARTH
REF_FRAME      = TEME
TIME_SYSTEM    = UTC
MEAN_ELEMENT_THEORY = SGP/SGP4

EPOCH          = 2025-11-20T03:27:44.146080
MEAN_MOTION    = 14.20057007
ECCENTRICITY   = .0211875
INCLINATION    = 98.1766
RA_OF_ASC_NODE = 34.7884
ARG_OF_PERICENTER = 102.1796
MEAN_ANOMALY   = 260.3200

EPHEMERIS_TYPE = 0
CLASSIFICATION_TYPE = U
NORAD_CAT_ID   = 82683
ELEMENT_SET_NO = 999
REV_AT_EPOCH   = 45906
BSTAR          = .46642E-3
MEAN_MOTION_DOT = .1204E-4
MEAN_MOTION_DDOT = 0

CCSDS_OMM_VERS = 2.0
CREATION_DATE  = 
ORIGINATOR     = 

OBJECT_NAME    = UNKNOWN
OBJECT_ID      = 
CENTER_NAME    = EARTH
REF_FRAME      = TEME
TIME_SYSTEM    = UTC
MEAN_ELEMENT_THEORY = SGP/SGP4

EPOCH          = 2025-11-20T03:09:29.566944
MEAN_MOTION    = 13.69333988
ECCENTRICITY   = .0041935
INCLINATION    = 100.5306
RA_OF_ASC_NODE = 285.5697
ARG_OF_PERICENTER = 74.9953
MEAN_ANOMALY   = 285.5825

EPHEMERIS_TYPE = 0
CLASSIFICATION_TYPE = U
NORAD_CAT_ID   = 82693
ELEMENT_SET_NO = 999
REV_AT_EPOCH   = 55066
BSTAR          = .33905E-2
MEAN_MOTION_DOT = .2913E-4
MEAN_MOTION_DDOT = 0

CCSDS_OMM_VERS = 2.0
CREATION_DATE  = 
ORIGINATOR     = 

OBJECT_NAME    = UNKNOWN
OBJECT_ID      = 
CENTER_NAME    = EARTH
REF_FRAME      = TEME
TIME_SYSTEM    = UTC
MEAN_ELEMENT_THEORY = SGP/SGP4

EPOCH          = 2025-11-17T10:56:12.362496
MEAN_MOTION    = 13.29325801
ECCENTRICITY   = .0684231
INCLINATION    = 61.6136
RA_OF_ASC_NODE = 218.1657
ARG_OF_PERICENTER = 280.2009
MEAN_ANOMALY   = 72.2561

EPHEMERIS_TYPE = 0
CLASSIFICATION_TYPE = U
NORAD_CAT_ID   = 82698
ELEMENT_SET_NO = 999
REV_AT_EPOCH   = 53501
BSTAR          = .10895E-2
MEAN_MOTION_DOT = .1773E-4
MEAN_MOTION_DDOT = 0

CCSDS_OMM_VERS = 2.0
CREATION_DATE  = 
ORIGINATOR     = 

OBJECT_NAME    = UNKNOWN
OBJECT_ID      = 
CENTER_NAME    = EARTH
REF_FRAME      = TEME
TIME_SYSTEM    = UTC
MEAN_ELEMENT_THEORY = SGP/SGP4

EPOCH          = 2025-11-17T19:59:48.986304
MEAN_MOTION    = 12.90522833
ECCENTRICITY   = .0063485
INCLINATION    = 102.1664
RA_OF_ASC_NODE = 162.5867
ARG_OF_PERICENTER = 336.1178
MEAN_ANOMALY   = 23.6972

EPHEMERIS_TYPE = 0
CLASSIFICATION_TYPE = U
NORAD_CAT_ID   = 82708
ELEMENT_SET_NO = 999
REV_AT_EPOCH   = 52030
BSTAR          = .59444E-2
MEAN_MOTION_DOT = .1527E-4
MEAN_MOTION_DDOT = 0

CCSDS_OMM_VERS = 2.0
CREATION_DATE  = 
ORIGINATOR     = 

OBJECT_NAME    = UNKNOWN
OBJECT_ID      = 
CENTER_NAME    = EARTH
REF_FRAME      = TEME
TIME_SYSTEM    = UTC
MEAN_ELEMENT_THEORY = SGP/SGP4

EPOCH          = 2025-11-17T06:43:41.776896
MEAN_MOTION    = 12.17733009
ECCENTRICITY   = .082992
INCLINATION    = 67.9666
RA_OF_ASC_NODE = 189.9070
ARG_OF_PERICENTER = 28.3980
MEAN_ANOMALY   = 335.9760

EPHEMERIS_TYPE = 0
CLASSIFICATION_TYPE = U
NORAD_CAT_ID   = 82729
ELEMENT_SET_NO = 999
REV_AT_EPOCH   = 53210
BSTAR          = .29051E-2
MEAN_MOTION_DOT = .829E-5
MEAN_MOTION_DDOT = 0

CCSDS_OMM_VERS = 2.0
CREATION_DATE  = 
ORIGINATOR     = 

OBJECT_NAME    = UNKNOWN
OBJECT_ID      = 
CENTER_NAME    = EARTH
REF_FRAME      = TEME
TIME_SYSTEM    = UTC
MEAN_ELEMENT_THEORY = SGP/SGP4

EPOCH          = 2025-11-16T17:04:46.649856
MEAN_MOTION    = 13.82580809
ECCENTRICITY   = .0173666
INCLINATION    = 99.0862
RA_OF_ASC_NODE = 117.9505
ARG_OF_PERICENTER = 3.0981
MEAN_ANOMALY   = 12.8716

EPHEMERIS_TYPE = 0
CLASSIFICATION_TYPE = U
NORAD_CAT_ID   = 82739
ELEMENT_SET_NO = 999
REV_AT_EPOCH   = 60251
BSTAR          = .21502E-2
MEAN_MOTION_DOT = .2576E-4
MEAN_MOTION_DDOT = 0

